[{"OBJECT_NAME":"DMC3-FM2","OBJECT_ID":"2015-032B","EPOCH":"2026-03-09T22:51:57.203424","MEAN_MOTION":14.85619682,"ECCENTRICITY":0.00071042,"INCLINATION":97.6664,"RA_OF_ASC_NODE":299.4449,"ARG_OF_PERICENTER":36.5414,"MEAN_ANOMALY":323.6285,"EPHEMERIS_TYPE":0,"CLASSIFICATION_TYPE":"U","NORAD_CAT_ID":40716,"ELEMENT_SET_NO":999,"REV_AT_EPOCH":57517,"BSTAR":0.00013054077,"MEAN_MOTION_DOT":1.079e-5,"MEAN_MOTION_DDOT":0},{"OBJECT_NAME":"MISRSAT-2","OBJECT_ID":"2023-187B","EPOCH":"2026-03-09T22:47:39.416064","MEAN_MOTION":14.82973082,"ECCENTRICITY":0.00124357,"INCLINATION":97.9302,"RA_OF_ASC_NODE":151.6612,"ARG_OF_PERICENTER":109.0533,"MEAN_ANOMALY":251.2029,"EPHEMERIS_TYPE":0,"CLASSIFICATION_TYPE":"U","NORAD_CAT_ID":58497,"ELEMENT_SET_NO":999,"REV_AT_EPOCH":12233,"BSTAR":0.00025174418,"MEAN_MOTION_DOT":1.993e-5,"MEAN_MOTION_DDOT":0}]
